GLOBALSTAR M063         
1 26081U 00008A   24172.72334639 -.00000045  00000+0  55662-3 0  9994
2 26081  51.9975 343.5269 0004219 351.3497  21.3413 11.86156173114688
GLOBALSTAR M062         
1 26082U 00008B   24172.96752091 -.00000079  00000+0  14090-3 0  9994
2 26082  51.9853  77.9966 0007662  59.7335  23.1261 12.43438553451685
GLOBALSTAR M060         
1 26083U 00008C   24172.97861376  .00000089  00000+0  17939-2 0  9997
2 26083  52.0041 346.8718 0004211 109.7933  29.1138 12.17634552108537
GLOBALSTAR M064         
1 26084U 00008D   24172.93397433 -.00000080  00000+0  50085-4 0  9995
2 26084  52.0037  86.0582 0001936  68.3895 291.7143 11.88519899124144
GLOBALSTAR M065         
1 31571U 07020A   24172.98700191 -.00000049  00000+0  30856-3 0  9995
2 31571  51.9886 245.6136 0009952 225.6894 192.7059 12.61971935788105
GLOBALSTAR M069         
1 31573U 07020C   24172.44360833 -.00000052  00000+0  28726-3 0  9990
2 31573  51.9925 203.0885 0000546 244.7227 253.2999 12.62275853788868
GLOBALSTAR M071         
1 31576U 07020F   24172.63169163 -.00000059  00000+0  25223-3 0  9993
2 31576  52.0043 207.6857 0000030 302.9912 208.9815 12.62268798450072
